{"fetched_at":"2026-07-12T05:53:02.586Z","source":"https://celestrak.org/NORAD/elements/gp.php?NAME=KINEIS&FORMAT=JSON","constellation":"kineis","records":[{"OBJECT_NAME":"KINEIS-1B","OBJECT_ID":"2024-114A","EPOCH":"2026-07-11T20:29:09.013920","CLASSIFICATION_TYPE":"U","MEAN_MOTION":14.80664006,"ECCENTRICITY":0.0003196,"INCLINATION":97.9827,"RA_OF_ASC_NODE":216.9213,"ARG_OF_PERICENTER":45.683,"MEAN_ANOMALY":314.4643,"EPHEMERIS_TYPE":0,"NORAD_CAT_ID":60079,"ELEMENT_SET_NO":999,"REV_AT_EPOCH":11105,"BSTAR":0.000062941,"MEAN_MOTION_DOT":0.00000431,"MEAN_MOTION_DDOT":0},{"OBJECT_NAME":"KINEIS-1C","OBJECT_ID":"2024-114C","EPOCH":"2026-07-11T19:40:16.472640","CLASSIFICATION_TYPE":"U","MEAN_MOTION":14.8066588,"ECCENTRICITY":0.0002561,"INCLINATION":97.9841,"RA_OF_ASC_NODE":216.742,"ARG_OF_PERICENTER":99.0635,"MEAN_ANOMALY":261.0867,"EPHEMERIS_TYPE":0,"NORAD_CAT_ID":60081,"ELEMENT_SET_NO":999,"REV_AT_EPOCH":11102,"BSTAR":0.000058399,"MEAN_MOTION_DOT":0.00000396,"MEAN_MOTION_DDOT":0},{"OBJECT_NAME":"KINEIS-1D","OBJECT_ID":"2024-114D","EPOCH":"2026-07-11T20:24:01.707264","CLASSIFICATION_TYPE":"U","MEAN_MOTION":14.76360021,"ECCENTRICITY":0.0002921,"INCLINATION":97.9877,"RA_OF_ASC_NODE":212.7162,"ARG_OF_PERICENTER":103.4658,"MEAN_ANOMALY":256.6877,"EPHEMERIS_TYPE":0,"NORAD_CAT_ID":60082,"ELEMENT_SET_NO":999,"REV_AT_EPOCH":11076,"BSTAR":0.00005547,"MEAN_MOTION_DOT":0.00000334,"MEAN_MOTION_DDOT":0},{"OBJECT_NAME":"KINEIS-1E","OBJECT_ID":"2024-114E","EPOCH":"2026-07-11T20:06:00.820800","CLASSIFICATION_TYPE":"U","MEAN_MOTION":14.80690784,"ECCENTRICITY":0.0004023,"INCLINATION":97.8943,"RA_OF_ASC_NODE":215.8663,"ARG_OF_PERICENTER":116.5222,"MEAN_ANOMALY":243.6403,"EPHEMERIS_TYPE":0,"NORAD_CAT_ID":60083,"ELEMENT_SET_NO":999,"REV_AT_EPOCH":11103,"BSTAR":0.000073156,"MEAN_MOTION_DOT":0.00000511,"MEAN_MOTION_DDOT":0},{"OBJECT_NAME":"KINEIS-1A","OBJECT_ID":"2024-114F","EPOCH":"2026-07-11T20:54:07.937280","CLASSIFICATION_TYPE":"U","MEAN_MOTION":14.80679255,"ECCENTRICITY":0.0005517,"INCLINATION":97.8917,"RA_OF_ASC_NODE":215.9941,"ARG_OF_PERICENTER":70.556,"MEAN_ANOMALY":289.6248,"EPHEMERIS_TYPE":0,"NORAD_CAT_ID":60084,"ELEMENT_SET_NO":999,"REV_AT_EPOCH":11104,"BSTAR":0.000064225,"MEAN_MOTION_DOT":0.00000442,"MEAN_MOTION_DDOT":0},{"OBJECT_NAME":"KINEIS-3C","OBJECT_ID":"2024-172A","EPOCH":"2026-07-08T19:41:03.998688","CLASSIFICATION_TYPE":"U","MEAN_MOTION":14.72355818,"ECCENTRICITY":0.00027496,"INCLINATION":98.0431,"RA_OF_ASC_NODE":279.49,"ARG_OF_PERICENTER":92.2536,"MEAN_ANOMALY":267.8986,"EPHEMERIS_TYPE":0,"NORAD_CAT_ID":61220,"ELEMENT_SET_NO":999,"REV_AT_EPOCH":9625,"BSTAR":0.00019489517,"MEAN_MOTION_DOT":0.00001184,"MEAN_MOTION_DDOT":0},{"OBJECT_NAME":"KINEIS-3D","OBJECT_ID":"2024-172B","EPOCH":"2026-07-08T19:31:21.430272","CLASSIFICATION_TYPE":"U","MEAN_MOTION":14.72360142,"ECCENTRICITY":0.00026129,"INCLINATION":98.0427,"RA_OF_ASC_NODE":279.4937,"ARG_OF_PERICENTER":92.0165,"MEAN_ANOMALY":268.1342,"EPHEMERIS_TYPE":0,"NORAD_CAT_ID":61221,"ELEMENT_SET_NO":999,"REV_AT_EPOCH":9653,"BSTAR":0.0001825622,"MEAN_MOTION_DOT":0.00001106,"MEAN_MOTION_DDOT":0},{"OBJECT_NAME":"KINEIS-3E","OBJECT_ID":"2024-172C","EPOCH":"2026-07-11T18:52:52.760064","CLASSIFICATION_TYPE":"U","MEAN_MOTION":14.72333196,"ECCENTRICITY":0.0001818,"INCLINATION":98.0428,"RA_OF_ASC_NODE":282.417,"ARG_OF_PERICENTER":90.9635,"MEAN_ANOMALY":269.178,"EPHEMERIS_TYPE":0,"NORAD_CAT_ID":61222,"ELEMENT_SET_NO":999,"REV_AT_EPOCH":9697,"BSTAR":0.00015894,"MEAN_MOTION_DOT":0.00000955,"MEAN_MOTION_DDOT":0},{"OBJECT_NAME":"KINEIS-3A","OBJECT_ID":"2024-172D","EPOCH":"2026-07-11T18:29:07.846080","CLASSIFICATION_TYPE":"U","MEAN_MOTION":14.72302947,"ECCENTRICITY":0.00024,"INCLINATION":98.0425,"RA_OF_ASC_NODE":282.4988,"ARG_OF_PERICENTER":49.1572,"MEAN_ANOMALY":310.9843,"EPHEMERIS_TYPE":0,"NORAD_CAT_ID":61223,"ELEMENT_SET_NO":999,"REV_AT_EPOCH":9639,"BSTAR":0.00015834,"MEAN_MOTION_DOT":0.00000951,"MEAN_MOTION_DDOT":0},{"OBJECT_NAME":"KINEIS-3B","OBJECT_ID":"2024-172E","EPOCH":"2026-07-11T18:04:03.983232","CLASSIFICATION_TYPE":"U","MEAN_MOTION":14.72289102,"ECCENTRICITY":0.000188,"INCLINATION":98.0418,"RA_OF_ASC_NODE":282.5042,"ARG_OF_PERICENTER":36.5803,"MEAN_ANOMALY":323.5532,"EPHEMERIS_TYPE":0,"NORAD_CAT_ID":61224,"ELEMENT_SET_NO":999,"REV_AT_EPOCH":9696,"BSTAR":0.0001578,"MEAN_MOTION_DOT":0.00000947,"MEAN_MOTION_DDOT":0},{"OBJECT_NAME":"KINEIS-5C","OBJECT_ID":"2024-219A","EPOCH":"2026-07-11T20:47:01.646592","CLASSIFICATION_TYPE":"U","MEAN_MOTION":14.72312097,"ECCENTRICITY":0.0003886,"INCLINATION":97.9062,"RA_OF_ASC_NODE":351.0357,"ARG_OF_PERICENTER":183.2876,"MEAN_ANOMALY":176.8306,"EPHEMERIS_TYPE":0,"NORAD_CAT_ID":62081,"ELEMENT_SET_NO":999,"REV_AT_EPOCH":8738,"BSTAR":0.000060949,"MEAN_MOTION_DOT":0.00000337,"MEAN_MOTION_DDOT":0},{"OBJECT_NAME":"KINEIS-5D","OBJECT_ID":"2024-219B","EPOCH":"2026-07-11T21:25:47.228736","CLASSIFICATION_TYPE":"U","MEAN_MOTION":14.72489981,"ECCENTRICITY":0.0005014,"INCLINATION":97.9176,"RA_OF_ASC_NODE":351.1243,"ARG_OF_PERICENTER":177.3506,"MEAN_ANOMALY":182.7729,"EPHEMERIS_TYPE":0,"NORAD_CAT_ID":62082,"ELEMENT_SET_NO":999,"REV_AT_EPOCH":8739,"BSTAR":0.000084518,"MEAN_MOTION_DOT":0.00000488,"MEAN_MOTION_DDOT":0},{"OBJECT_NAME":"KINEIS-5E","OBJECT_ID":"2024-219C","EPOCH":"2026-07-11T20:12:57.864096","CLASSIFICATION_TYPE":"U","MEAN_MOTION":14.72296833,"ECCENTRICITY":0.0006499,"INCLINATION":97.902,"RA_OF_ASC_NODE":351.1088,"ARG_OF_PERICENTER":174.6101,"MEAN_ANOMALY":185.5177,"EPHEMERIS_TYPE":0,"NORAD_CAT_ID":62083,"ELEMENT_SET_NO":999,"REV_AT_EPOCH":8739,"BSTAR":0.000057738,"MEAN_MOTION_DOT":0.00000317,"MEAN_MOTION_DDOT":0},{"OBJECT_NAME":"KINEIS-5A","OBJECT_ID":"2024-219D","EPOCH":"2026-07-11T14:47:49.170048","CLASSIFICATION_TYPE":"U","MEAN_MOTION":14.7223888,"ECCENTRICITY":0.0003485,"INCLINATION":97.8962,"RA_OF_ASC_NODE":351.1722,"ARG_OF_PERICENTER":213.7401,"MEAN_ANOMALY":146.3585,"EPHEMERIS_TYPE":0,"NORAD_CAT_ID":62084,"ELEMENT_SET_NO":999,"REV_AT_EPOCH":8736,"BSTAR":0.00024024,"MEAN_MOTION_DOT":0.00001468,"MEAN_MOTION_DDOT":0},{"OBJECT_NAME":"KINEIS-5B","OBJECT_ID":"2024-219E","EPOCH":"2026-07-11T21:18:02.979072","CLASSIFICATION_TYPE":"U","MEAN_MOTION":14.78381399,"ECCENTRICITY":0.0002267,"INCLINATION":98.0086,"RA_OF_ASC_NODE":356.5815,"ARG_OF_PERICENTER":151.9911,"MEAN_ANOMALY":208.1422,"EPHEMERIS_TYPE":0,"NORAD_CAT_ID":62085,"ELEMENT_SET_NO":999,"REV_AT_EPOCH":8765,"BSTAR":0.00008614,"MEAN_MOTION_DOT":0.00000575,"MEAN_MOTION_DDOT":0},{"OBJECT_NAME":"KINEIS-2C","OBJECT_ID":"2025-028B","EPOCH":"2026-07-11T16:49:26.444064","CLASSIFICATION_TYPE":"U","MEAN_MOTION":14.73423103,"ECCENTRICITY":0.0003972,"INCLINATION":98.1232,"RA_OF_ASC_NODE":247.1208,"ARG_OF_PERICENTER":168.716,"MEAN_ANOMALY":191.4138,"EPHEMERIS_TYPE":0,"NORAD_CAT_ID":62929,"ELEMENT_SET_NO":999,"REV_AT_EPOCH":7622,"BSTAR":0.00013904,"MEAN_MOTION_DOT":0.00000851,"MEAN_MOTION_DDOT":0},{"OBJECT_NAME":"KINEIS-2D","OBJECT_ID":"2025-028C","EPOCH":"2026-07-11T17:35:36.878208","CLASSIFICATION_TYPE":"U","MEAN_MOTION":14.75762576,"ECCENTRICITY":0.0004657,"INCLINATION":97.9274,"RA_OF_ASC_NODE":244.7056,"ARG_OF_PERICENTER":117.0627,"MEAN_ANOMALY":243.1058,"EPHEMERIS_TYPE":0,"NORAD_CAT_ID":62930,"ELEMENT_SET_NO":999,"REV_AT_EPOCH":7633,"BSTAR":0.00013616,"MEAN_MOTION_DOT":0.00000882,"MEAN_MOTION_DDOT":0},{"OBJECT_NAME":"KINEIS-2E","OBJECT_ID":"2025-028D","EPOCH":"2026-07-11T16:19:55.531776","CLASSIFICATION_TYPE":"U","MEAN_MOTION":14.77081859,"ECCENTRICITY":0.0002131,"INCLINATION":97.8943,"RA_OF_ASC_NODE":243.7916,"ARG_OF_PERICENTER":97.9699,"MEAN_ANOMALY":262.1754,"EPHEMERIS_TYPE":0,"NORAD_CAT_ID":62931,"ELEMENT_SET_NO":999,"REV_AT_EPOCH":7639,"BSTAR":0.00011798,"MEAN_MOTION_DOT":0.00000783,"MEAN_MOTION_DDOT":0},{"OBJECT_NAME":"KINEIS-2A","OBJECT_ID":"2025-028E","EPOCH":"2026-07-11T17:54:55.873728","CLASSIFICATION_TYPE":"U","MEAN_MOTION":14.73445421,"ECCENTRICITY":0.0006058,"INCLINATION":98.1289,"RA_OF_ASC_NODE":248.17,"ARG_OF_PERICENTER":92.0393,"MEAN_ANOMALY":268.1508,"EPHEMERIS_TYPE":0,"NORAD_CAT_ID":62932,"ELEMENT_SET_NO":999,"REV_AT_EPOCH":7622,"BSTAR":0.00011814,"MEAN_MOTION_DOT":0.00000715,"MEAN_MOTION_DDOT":0},{"OBJECT_NAME":"KINEIS-2B","OBJECT_ID":"2025-028G","EPOCH":"2026-07-11T17:22:20.480160","CLASSIFICATION_TYPE":"U","MEAN_MOTION":14.73446139,"ECCENTRICITY":0.0004953,"INCLINATION":97.9656,"RA_OF_ASC_NODE":245.1398,"ARG_OF_PERICENTER":81.8006,"MEAN_ANOMALY":278.3764,"EPHEMERIS_TYPE":0,"NORAD_CAT_ID":62934,"ELEMENT_SET_NO":999,"REV_AT_EPOCH":7627,"BSTAR":0.00011395,"MEAN_MOTION_DOT":0.0000069,"MEAN_MOTION_DDOT":0},{"OBJECT_NAME":"KINEIS-4E","OBJECT_ID":"2025-056A","EPOCH":"2026-07-11T18:48:14.026752","CLASSIFICATION_TYPE":"U","MEAN_MOTION":14.72297174,"ECCENTRICITY":0.0003034,"INCLINATION":97.9065,"RA_OF_ASC_NODE":315.9995,"ARG_OF_PERICENTER":91.5841,"MEAN_ANOMALY":268.5714,"EPHEMERIS_TYPE":0,"NORAD_CAT_ID":63300,"ELEMENT_SET_NO":999,"REV_AT_EPOCH":7074,"BSTAR":0.00014063,"MEAN_MOTION_DOT":0.0000084,"MEAN_MOTION_DDOT":0},{"OBJECT_NAME":"KINEIS-4C","OBJECT_ID":"2025-056B","EPOCH":"2026-07-11T19:06:07.960608","CLASSIFICATION_TYPE":"U","MEAN_MOTION":14.72318782,"ECCENTRICITY":0.0002539,"INCLINATION":97.9118,"RA_OF_ASC_NODE":316.2582,"ARG_OF_PERICENTER":225.7413,"MEAN_ANOMALY":134.3587,"EPHEMERIS_TYPE":0,"NORAD_CAT_ID":63301,"ELEMENT_SET_NO":999,"REV_AT_EPOCH":7075,"BSTAR":0.00014045,"MEAN_MOTION_DOT":0.0000084,"MEAN_MOTION_DDOT":0},{"OBJECT_NAME":"KINEIS-4D","OBJECT_ID":"2025-056C","EPOCH":"2026-07-11T19:10:58.541088","CLASSIFICATION_TYPE":"U","MEAN_MOTION":14.72421099,"ECCENTRICITY":0.0001269,"INCLINATION":97.9039,"RA_OF_ASC_NODE":316.2374,"ARG_OF_PERICENTER":233.4819,"MEAN_ANOMALY":126.6272,"EPHEMERIS_TYPE":0,"NORAD_CAT_ID":63302,"ELEMENT_SET_NO":999,"REV_AT_EPOCH":7075,"BSTAR":0.00013773,"MEAN_MOTION_DOT":0.00000825,"MEAN_MOTION_DDOT":0},{"OBJECT_NAME":"KINEIS-4A","OBJECT_ID":"2025-056D","EPOCH":"2026-07-11T20:01:34.987008","CLASSIFICATION_TYPE":"U","MEAN_MOTION":14.72328354,"ECCENTRICITY":0.0001838,"INCLINATION":97.9133,"RA_OF_ASC_NODE":316.2196,"ARG_OF_PERICENTER":159.0284,"MEAN_ANOMALY":201.0999,"EPHEMERIS_TYPE":0,"NORAD_CAT_ID":63303,"ELEMENT_SET_NO":999,"REV_AT_EPOCH":7075,"BSTAR":0.00013825,"MEAN_MOTION_DOT":0.00000826,"MEAN_MOTION_DDOT":0},{"OBJECT_NAME":"KINEIS-4B","OBJECT_ID":"2025-056E","EPOCH":"2026-07-11T19:36:41.230368","CLASSIFICATION_TYPE":"U","MEAN_MOTION":14.7232273,"ECCENTRICITY":0.0005012,"INCLINATION":97.9145,"RA_OF_ASC_NODE":316.2597,"ARG_OF_PERICENTER":204.1508,"MEAN_ANOMALY":155.9465,"EPHEMERIS_TYPE":0,"NORAD_CAT_ID":63304,"ELEMENT_SET_NO":999,"REV_AT_EPOCH":7074,"BSTAR":0.00013556,"MEAN_MOTION_DOT":0.00000809,"MEAN_MOTION_DDOT":0}]}
